[{"OBJECT_NAME":"EYESAT A (AO-27)","OBJECT_ID":"1993-061C","EPOCH":"2026-03-09T16:58:07.157856","MEAN_MOTION":14.30913089,"ECCENTRICITY":0.00089503,"INCLINATION":98.6982,"RA_OF_ASC_NODE":136.1171,"ARG_OF_PERICENTER":38.8989,"MEAN_ANOMALY":321.2837,"EPHEMERIS_TYPE":0,"CLASSIFICATION_TYPE":"U","NORAD_CAT_ID":22825,"ELEMENT_SET_NO":999,"REV_AT_EPOCH":69277,"BSTAR":7.1797441e-5,"MEAN_MOTION_DOT":1.44e-6,"MEAN_MOTION_DDOT":0},{"OBJECT_NAME":"FENGYUN 1C DEB","OBJECT_ID":"1999-025BUM","EPOCH":"2026-02-27T21:10:09.576192","MEAN_MOTION":14.33836406,"ECCENTRICITY":0.0145314,"INCLINATION":98.5413,"RA_OF_ASC_NODE":121.5127,"ARG_OF_PERICENTER":40.7759,"MEAN_ANOMALY":320.4194,"EPHEMERIS_TYPE":0,"CLASSIFICATION_TYPE":"U","NORAD_CAT_ID":31449,"ELEMENT_SET_NO":999,"REV_AT_EPOCH":98742,"BSTAR":0.00017342,"MEAN_MOTION_DOT":4.97e-6,"MEAN_MOTION_DDOT":0}]
